NORAD_CAT_ID,OBJECT_NAME,OBJECT_TYPE,EPOCH,MEAN_MOTION,ECCENTRICITY,INCLINATION,RA_OF_ASC_NODE,ARG_OF_PERICENTER,MEAN_ANOMALY,BSTAR,MEAN_MOTION_DOT,MEAN_MOTION_DDOT,TLE_LINE0,TLE_LINE1,TLE_LINE2,SEMIMAJOR_AXIS,PERIOD,APOGEE,PERIGEE,DECAYED
54088.0,STARLINK-5153,PAYLOAD,2023-04-03 17:27:17,15.08840637,0.0001233,53.2171,101.9634,96.2817,263.8315,0.00013784,1.907e-05,0.0,0 STARLINK-5153,1 54088U 22136AP  23093.72728139  .00001907  00000-0  13784-3 0  9998,2 54088  53.2171 101.9634 0001233  96.2817 263.8315 15.08840637 25302,6917.878,95.438,540.596,538.89,0.0
54088.0,STARLINK-5153,PAYLOAD,2023-04-04 06:10:22,15.08840655,0.0001245,53.2172,99.5844,97.192,262.9214,6.1505e-05,6.91e-06,0.0,0 STARLINK-5153,1 54088U 22136AP  23094.25720214  .00000691  00000-0  61505-4 0  9997,2 54088  53.2172  99.5844 0001245  97.1920 262.9214 15.08840655 25854,6917.878,95.438,540.605,538.882,0.0
54088.0,STARLINK-5153,PAYLOAD,2023-04-04 07:45:45,15.08841986,0.0001216,53.2182,99.287,98.0754,262.0376,0.00010106,1.321e-05,0.0,0 STARLINK-5153,1 54088U 22136AP  23094.32344347  .00001321  00000-0  10106-3 0  9995,2 54088  53.2182  99.2870 0001216  98.0754 262.0376 15.08841986 25391,6917.874,95.437,540.581,538.898,0.0
54088.0,STARLINK-5153,PAYLOAD,2023-04-05 07:36:32,15.08842128,0.0001311,53.2183,94.8261,102.6362,257.4777,7.3888e-05,8.88e-06,0.0,0 STARLINK-5153,1 54088U 22136AP  23095.31704366  .00000888  00000-0  73888-4 0  9990,2 54088  53.2183  94.8261 0001311 102.6362 257.4777 15.08842128 25549,6917.874,95.437,540.646,538.832,0.0
54088.0,STARLINK-5153,PAYLOAD,2023-04-06 09:02:41,15.08858039,0.0001226,53.2173,90.0669,103.8046,256.3083,0.00020772,3.021e-05,0.0,0 STARLINK-5153,1 54088U 22136AP  23096.37686474  .00003021  00000-0  20772-3 0  9991,2 54088  53.2173  90.0669 0001226 103.8046 256.3083 15.08858039 26171,6917.825,95.436,540.538,538.842,0.0
54088.0,STARLINK-5153,PAYLOAD,2023-04-06 16:59:38,15.0883569,0.0001813,53.2177,88.5822,84.7847,275.3352,4.2873e-05,3.94e-06,0.0,0 STARLINK-5153,1 54088U 22136AP  23096.70808576  .00000394  00000-0  42873-4 0  9994,2 54088  53.2177  88.5822 0001813  84.7847 275.3352 15.08835690 26220,6917.894,95.438,541.013,538.504,0.0
54088.0,STARLINK-5153,PAYLOAD,2023-04-07 08:53:30,15.08831446,0.0001274,53.2189,85.6076,107.5296,252.5835,-4.3902e-05,-9.86e-06,0.0,0 STARLINK-5153,1 54088U 22136AP  23097.37049066 -.00000986  00000-0 -43902-4 0  9992,2 54088  53.2189  85.6076 0001274 107.5296 252.5835 15.08831446 26324,6917.907,95.438,540.653,538.89,0.0
54088.0,STARLINK-5153,PAYLOAD,2023-04-08 05:33:30,15.08849216,0.0001212,53.2174,81.7415,86.689,273.4241,3.9326e-05,3.38e-06,0.0,0 STARLINK-5153,1 54088U 22136AP  23098.23159821  .00000338  00000-0  39326-4 0  9993,2 54088  53.2174  81.7415 0001212  86.6890 273.4241 15.08849216 26452,6917.852,95.437,540.556,538.879,0.0
54088.0,STARLINK-5153,PAYLOAD,2023-04-08 08:44:16,15.08850988,0.000121,53.2172,81.1468,86.8336,273.2795,9.5395e-05,1.231e-05,0.0,0 STARLINK-5153,1 54088U 22136AP  23098.36407739  .00001231  00000-0  95395-4 0  9992,2 54088  53.2172  81.1468 0001210  86.8336 273.2795 15.08850988 26008,6917.847,95.437,540.549,538.875,0.0
54088.0,STARLINK-5153,PAYLOAD,2023-04-09 05:24:17,15.08840278,0.0001109,53.2175,77.2813,85.8164,274.2955,0.00030669,4.597e-05,0.0,0 STARLINK-5153,1 54088U 22136AP  23099.22520743  .00004597  00000-0  30669-3 0  9999,2 54088  53.2175  77.2813 0001109  85.8164 274.2955 15.08840278 26602,6917.88,95.438,540.512,538.977,0.0
54088.0,STARLINK-5153,PAYLOAD,2023-04-09 08:35:03,15.08848817,0.0001148,53.2177,76.6863,86.0877,274.0246,0.00035811,5.417e-05,0.0,0 STARLINK-5153,1 54088U 22136AP  23099.35768453  .00005417  00000-0  35811-3 0  9991,2 54088  53.2177  76.6863 0001148  86.0877 274.0246 15.08848817 26157,6917.853,95.437,540.513,538.924,0.0
54088.0,STARLINK-5153,PAYLOAD,2023-04-09 14:56:36,15.088426,0.000103,53.2167,75.4966,83.2837,276.8272,0.0001311,1.799e-05,0.0,0 STARLINK-5153,1 54088U 22136AP  23099.62264565  .00001799  00000-0  13110-3 0  9993,2 54088  53.2167  75.4966 0001030  83.2837 276.8272 15.08842600 26199,6917.872,95.437,540.45,539.025,0.0
54088.0,STARLINK-5153,PAYLOAD,2023-04-10 06:50:27,15.08842936,0.0001322,53.2179,72.524,93.0569,267.0575,0.00020298,2.944e-05,0.0,0 STARLINK-5153,1 54088U 22136AP  23100.28504629  .00002944  00000-0  20298-3 0  9994,2 54088  53.2179  72.5240 0001322  93.0569 267.0575 15.08842936 26763,6917.871,95.437,540.651,538.822,0.0
54088.0,STARLINK-5153,PAYLOAD,2023-04-10 21:08:56,15.08843478,0.0001108,53.2186,69.8508,90.5411,269.5708,0.00020065,2.907e-05,0.0,0 STARLINK-5153,1 54088U 22136AP  23100.88120744  .00002907  00000-0  20065-3 0  9993,2 54088  53.2186  69.8508 0001108  90.5411 269.5708 15.08843478 26382,6917.87,95.437,540.501,538.968,0.0
54088.0,STARLINK-5153,PAYLOAD,2023-04-11 05:05:52,15.08840533,0.0001273,53.2189,68.3613,96.7063,263.4074,0.00011599,1.559e-05,0.0,0 STARLINK-5153,1 54088U 22136AP  23101.21240938  .00001559  00000-0  11599-3 0  9993,2 54088  53.2189  68.3613 0001273  96.7063 263.4074 15.08840533 26906,6917.879,95.438,540.624,538.863,0.0
54088.0,STARLINK-5153,PAYLOAD,2023-04-11 08:16:38,15.08842323,0.0001208,53.2184,67.7661,85.1641,274.9489,0.0001285,1.758e-05,0.0,0 STARLINK-5153,1 54088U 22136AP  23101.34488824  .00001758  00000-0  12850-3 0  9997,2 54088  53.2184  67.7661 0001208  85.1641 274.9489 15.08842323 26455,6917.873,95.437,540.574,538.903,0.0
54088.0,STARLINK-5153,PAYLOAD,2023-04-12 04:56:39,15.0883832,0.0001667,53.2189,63.8997,87.1195,272.9988,-5.6209e-05,-1.182e-05,0.0,0 STARLINK-5153,1 54088U 22136AP  23102.20601411 -.00001182  00000-0 -56209-4 0  9992,2 54088  53.2189  63.8997 0001667  87.1195 272.9988 15.08838320 27055,6917.886,95.438,540.904,538.597,0.0
54088.0,STARLINK-5153,PAYLOAD,2023-04-12 06:32:02,15.08841026,0.0001609,53.2188,63.6023,85.3436,274.774,-0.00010398,-1.943e-05,0.0,0 STARLINK-5153,1 54088U 22136AP  23102.27225259 -.00001943  00000-0 -10398-3 0  9994,2 54088  53.2188  63.6023 0001609  85.3436 274.7740 15.08841026 26597,6917.877,95.437,540.855,538.629,0.0
54088.0,STARLINK-5153,PAYLOAD,2023-04-13 06:22:49,15.088427,0.0001377,53.2181,59.1433,64.9702,295.1433,0.0001216,1.648e-05,0.0,0 STARLINK-5153,1 54088U 22136AP  23103.26585567  .00001648  00000-0  12160-3 0  9994,2 54088  53.2181  59.1433 0001377  64.9702 295.1433 15.08842700 26749,6917.872,95.437,540.69,538.785,0.0
54088.0,STARLINK-5153,PAYLOAD,2023-04-14 06:13:36,15.08851773,0.0001154,53.2168,54.6823,93.1719,266.9405,0.00024316,3.585e-05,0.0,0 STARLINK-5153,1 54088U 22136AP  23104.25944972  .00003585  00000-0  24316-3 0  9991,2 54088  53.2168  54.6823 0001154  93.1719 266.9405 15.08851773 26893,6917.844,95.437,540.508,538.911,0.0
54088.0,STARLINK-5153,PAYLOAD,2023-04-14 23:42:51,15.08845658,0.0001125,53.2172,51.4129,94.1826,265.9295,0.00013505,1.862e-05,0.0,0 STARLINK-5153,1 54088U 22136AP  23104.98809151  .00001862  00000-0  13505-3 0  9994,2 54088  53.2172  51.4129 0001125  94.1826 265.9295 15.08845658 27476,6917.863,95.437,540.506,538.95,0.0
54088.0,STARLINK-5153,PAYLOAD,2023-04-15 06:04:22,15.08863068,9.42e-05,53.2177,50.2233,88.6489,271.4611,0.000316,4.748e-05,0.0,0 STARLINK-5153,1 54088U 22136AP  23105.25304205  .00004748  00000-0  31600-3 0  9997,2 54088  53.2177  50.2233 0000942  88.6489 271.4611 15.08863068 27517,6917.81,95.436,540.327,539.023,0.0
54088.0,STARLINK-5153,PAYLOAD,2023-04-16 04:19:47,15.08844125,0.0001079,53.2187,46.0605,80.9514,279.16,4.3566e-05,4.06e-06,0.0,0 STARLINK-5153,1 54088U 22136AP  23106.18040961  .00000406  00000-0  43566-4 0  9998,2 54088  53.2187  46.0605 0001079  80.9514 279.1600 15.08844125 27651,6917.868,95.437,540.479,538.986,0.0
54088.0,STARLINK-5153,PAYLOAD,2023-04-16 05:55:10,15.0884562,0.0001083,53.2186,45.7616,84.8865,275.2251,0.0001133,1.516e-05,0.0,0 STARLINK-5153,1 54088U 22136AP  23106.24664932  .00001516  00000-0  11330-3 0  9991,2 54088  53.2186  45.7616 0001083  84.8865 275.2251 15.08845620 27194,6917.863,95.437,540.477,538.979,0.0
54088.0,STARLINK-5153,PAYLOAD,2023-04-17 05:45:57,15.08852564,9.62e-05,53.2186,41.3011,77.8763,282.2337,0.00050124,7.701e-05,0.0,0 STARLINK-5153,1 54088U 22136AP  23107.24025085  .00007701  00000-0  50124-3 0  9998,2 54088  53.2186  41.3011 0000962  77.8763 282.2337 15.08852564 27816,6917.842,95.437,540.372,539.041,0.0
54088.0,STARLINK-5153,PAYLOAD,2023-04-17 20:04:26,15.08838702,0.000119,53.2184,38.6246,90.7211,269.3917,0.00015086,2.114e-05,0.0,0 STARLINK-5153,1 54088U 22136AP  23107.83641616  .00002114  00000-0  15086-3 0  9998,2 54088  53.2184  38.6246 0001190  90.7211 269.3917 15.08838702 27907,6917.884,95.438,540.573,538.926,0.0
54088.0,STARLINK-5153,PAYLOAD,2023-04-18 04:01:22,15.08841903,0.0001206,53.2187,37.1377,86.5951,273.5179,0.00013132,1.803e-05,0.0,0 STARLINK-5153,1 54088U 22136AP  23108.16761603  .00001803  00000-0  13132-3 0  9998,2 54088  53.2187  37.1377 0001206  86.5951 273.5179 15.08841903 27488,6917.875,95.437,540.574,538.905,0.0
54088.0,STARLINK-5153,PAYLOAD,2023-04-19 03:52:09,15.08841721,0.0001363,53.2193,32.6786,79.8891,280.2255,2.6193e-05,1.29e-06,0.0,0 STARLINK-5153,1 54088U 22136AP  23109.16122057  .00000129  00000-0  26193-4 0  9995,2 54088  53.2193  32.6786 0001363  79.8891 280.2255 15.08841721 28109,6917.875,95.437,540.683,538.797,0.0
54088.0,STARLINK-5153,PAYLOAD,2023-04-20 05:18:18,15.08874303,0.0001444,53.2189,27.9192,79.9293,280.1862,0.0007352,0.00011443,0.0,0 STARLINK-5153,1 54088U 22136AP  23110.22104522  .00011443  00000-0  73520-3 0  9997,2 54088  53.2189  27.9192 0001444  79.9293 280.1862 15.08874303 27798,6917.776,95.435,540.639,538.642,0.0
54088.0,STARLINK-5153,PAYLOAD,2023-04-21 00:22:57,15.0882992,0.0002117,53.2174,24.3482,92.9771,267.1463,-0.00025638,-4.365e-05,0.0,0 STARLINK-5153,1 54088U 22136AP  23111.01594147 -.00004365  00000-0 -25638-3 0  9995,2 54088  53.2174  24.3482 0002117  92.9771 267.1463 15.08829920 28382,6917.911,95.438,541.241,538.312,0.0
